GLOBALSTAR M069         
1 31573U 07020C   26154.55258458 -.00000067  00000+0  23483-3 0  9994
2 31573  52.0041 290.7170 0002584 120.2368 322.1328 12.23470840877138
GLOBALSTAR M072         
1 31574U 07020D   26155.13889049 -.00000093  00000+0 -11941-3 0  9992
2 31574  51.9903 134.9831 0001364 294.8423 147.6989 11.91658484873429
GLOBALSTAR M066         
1 32265U 07048C   26155.16374304 -.00000082  00000+0  10639-3 0  9996
2 32265  51.9581  95.2977 0005238  15.9737  64.6647 12.30389190858626
GLOBALSTAR M079         
1 37188U 10054A   26155.15390119 -.00000118  00000+0 -81425-4 0  9990
2 37188  52.0011 148.3448 0000386 346.6846  91.9604 12.62265963720903
GLOBALSTAR M074         
1 37189U 10054B   26155.75516875 -.00000117  00000+0 -74031-4 0  9990
2 37189  51.9988 145.7813 0000274  46.9074 125.4420 12.62268455721584
GLOBALSTAR M076         
1 37190U 10054C   26155.20751850 -.00000104  00000+0  89200-6 0  9997
2 37190  52.0011 147.6501 0000405  25.4736  57.4355 12.62261858721236
GLOBALSTAR M077         
1 37191U 10054D   26154.70301275 -.00000059  00000+0  34246-3 0  9990
2 37191  51.9941 213.5218 0002958 148.4860   3.7641 11.67547589719561
GLOBALSTAR M075         
1 37192U 10054E   26154.80216435 -.00000097  00000+0  35971-4 0  9994
2 37192  51.9925 190.9481 0000175 153.8116 185.8286 12.62267381720246
GLOBALSTAR M073         
1 37193U 10054F   26155.06233985 -.00000107  00000+0 -16702-4 0  9997
2 37193  52.0049 104.2433 0000646  20.2950  60.9691 12.62262128722279
GLOBALSTAR M083         
1 37739U 11033A   26152.39730010 -.00000093  00000+0  62633-4 0  9992
2 37739  51.9867  60.6056 0000705  37.5726 108.8449 12.62262795690957
GLOBALSTAR M088         
1 37740U 11033B   26154.65317646 -.00000091  00000+0  71204-4 0  9993
2 37740  52.0228 320.1334 0000879 105.9125 334.6962 12.62268486686788
GLOBALSTAR M091         
1 37741U 11033C   26154.67113304 -.00000083  00000+0  11717-3 0  9994
2 37741  52.0005 283.0632 0000580 129.9388 333.4548 12.62263528687573
GLOBALSTAR M085         
1 37742U 11033D   26152.26726767 -.00000069  00000+0  19580-3 0  9991
2 37742  52.0122 241.6600 0000350 160.3418 234.3293 12.62263613687781
GLOBALSTAR M081         
1 37743U 11033E   26154.52646269 -.00000071  00000+0  18541-3 0  9990
2 37743  51.9951 237.2362 0000387 127.5431 337.7826 12.62264700688213
GLOBALSTAR M089         
1 37744U 11033F   26155.27278579 -.00000096  00000+0  42164-4 0  9995
2 37744  51.9906 189.1254 0000399 109.4449 329.6980 12.62266923689154
GLOBALSTAR M084         
1 38040U 11080A   26155.30340587 -.00000081  00000+0  12658-3 0  9998
2 38040  52.0022  56.5040 0000961  66.3677  91.9359 12.62267471667136
GLOBALSTAR M080         
1 38041U 11080B   26155.02613741 -.00000085  00000+0  10510-3 0  9992
2 38041  52.0072  59.0616 0000228  68.0018  39.7083 12.62269197667224
GLOBALSTAR M082         
1 38042U 11080C   26153.84797462 -.00000086  00000+0  99674-4 0  9994
2 38042  52.0097  18.1478 0000505  82.4288 359.0468 12.62269703667780
GLOBALSTAR M092         
1 38043U 11080D   26155.17266079 -.00000114  00000+0 -56962-4 0  9994
2 38043  52.0080 104.5116 0000433  44.6844  58.3460 12.62266786666407
GLOBALSTAR M090         
1 38044U 11080E   26154.93130786 -.00000090  00000+0  78936-4 0  9990
2 38044  52.0145   8.8022 0000773  72.7186 132.9497 12.62268844668037
GLOBALSTAR M086         
1 38045U 11080F   26154.06385596 -.00000090  00000+0  74831-4 0  9996
2 38045  51.9919  11.3954 0001565  43.1345  78.7981 12.62286398667877
GLOBALSTAR M097         
1 39072U 13005A   26155.65160266 -.00000100  00000+0  21470-4 0  9990
2 39072  52.0053 281.4942 0000503 122.1604 237.9312 12.62251206615323
GLOBALSTAR M093         
1 39073U 13005B   26154.51642428 -.00000079  00000+0  13857-3 0  9994
2 39073  52.0114 278.2921 0000380 106.3439 253.7470 12.62265502615130
GLOBALSTAR M094         
1 39074U 13005C   26155.22901567 -.00000099  00000+0  27887-4 0  9997
2 39074  51.9935 190.2539 0000087 295.7180  64.3678 12.62268494616835
GLOBALSTAR M096         
1 39075U 13005D   26155.71756021 -.00000068  00000+0  20148-3 0  9993
2 39075  52.0066 237.5578 0000280 156.7854 203.3025 12.62265341615816
GLOBALSTAR M078         
1 39076U 13005E   26153.79009236 -.00000100  00000+0  22146-4 0  9997
2 39076  51.9888 327.4521 0000688 179.3666 180.7202 12.62260079614196
GLOBALSTAR M095         
1 39077U 13005F   26155.63811847 -.00000097  00000+0  35909-4 0  9998
2 39077  52.0094 319.4113 0000421 119.7886 240.3022 12.62263276614288
GLOBALSTAR M087         
1 52888U 22064A   26155.01794613 -.00000108  00000+0 -22958-4 0  9995
2 52888  51.9985 102.5446 0000462   5.8685 354.2187 12.62268807189477
